{
  "norad_id": 63978,
  "name": "STARLINK-33642",
  "history": [
    {
      "epoch": "2026-03-28T15:06:43.031808",
      "apogee_km": 484.2566430559573,
      "perigee_km": 481.8168096788613,
      "latitude_deg": -14.437176148366069,
      "longitude_deg": -81.75218687998131,
      "semi_major_axis_km": 6861.1737263674095,
      "eccentricity": 0.0001778,
      "inclination_deg": 43.0041,
      "raan_deg": 65.7178,
      "arg_perigee_deg": 268.1899,
      "mean_anomaly_deg": 91.875,
      "mean_motion_rev_day": 15.27584131
    }
  ]
}